start=new Date('2022-08-29T00:00:00.000Z').valueOf();
sats=[{"ELEMENT_SET_NO":"999","TLE_LINE2":"2 53058  97.6578  61.1653 0002057  63.6964  31.5039 15.01188220  1308","OBJECT_TYPE":"PAYLOAD","COUNTRY_CODE":"US","MEAN_MOTION_DDOT":"0.0000000000000","SEMIMAJOR_AXIS":"6941.368","MEAN_MOTION_DOT":"0.00076426","ECCENTRICITY":"0.00020570","GP_ID":"211215465","MEAN_ANOMALY":"31.5039","CENTER_NAME":"EARTH","APOAPSIS":"564.661","TLE_LINE1":"1 53058U 22077R   22240.91667824  .00076426  00000-0  59016-2 0  9990","PERIAPSIS":"561.805","FILE":"3550014","MEAN_MOTION":"15.01188220","EPHEMERIS_TYPE":"0","TIME_SYSTEM":"UTC","RA_OF_ASC_NODE":"61.1653","MEAN_ELEMENT_THEORY":"SGP4","BSTAR":"0.00590160000000","INCLINATION":"97.6578","OBJECT_ID":"2022-077R","NORAD_CAT_ID":"53058","REV_AT_EPOCH":"130","REF_FRAME":"TEME","LAUNCH_DATE":"2022-07-11","OBJECT_NAME":"STARLINK-4317","CLASSIFICATION_TYPE":"U","EPOCH":"2022-08-28T22:00:00.999936","ARG_OF_PERICENTER":"63.6964","DECAY_DATE":null,"SITE":"AFWTR","RCS_SIZE":"LARGE","PERIOD":"95.924"},{"OBJECT_NAME":"STARLINK-4320","CLASSIFICATION_TYPE":"U","SITE":"AFWTR","RCS_SIZE":"LARGE","PERIOD":"95.921","EPOCH":"2022-08-28T22:00:00.999936","ARG_OF_PERICENTER":"73.4427","DECAY_DATE":null,"NORAD_CAT_ID":"53059","REV_AT_EPOCH":"130","INCLINATION":"97.6574","OBJECT_ID":"2022-077S","LAUNCH_DATE":"2022-07-11","REF_FRAME":"TEME","CENTER_NAME":"EARTH","TLE_LINE1":"1 53059U 22077S   22240.91667824  .00069523  00000-0  53684-2 0  9996","APOAPSIS":"564.179","MEAN_ANOMALY":"61.5898","MEAN_MOTION":"15.01230327","TIME_SYSTEM":"UTC","EPHEMERIS_TYPE":"0","RA_OF_ASC_NODE":"61.1652","BSTAR":"0.00536840000000","MEAN_ELEMENT_THEORY":"SGP4","FILE":"3550014","PERIAPSIS":"562.028","TLE_LINE2":"2 53059  97.6574  61.1652 0001549  73.4427  61.5898 15.01230327  1304","COUNTRY_CODE":"US","OBJECT_TYPE":"PAYLOAD","MEAN_MOTION_DDOT":"0.0000000000000","ELEMENT_SET_NO":"999","GP_ID":"211215753","SEMIMAJOR_AXIS":"6941.238","MEAN_MOTION_DOT":"0.00069523","ECCENTRICITY":"0.00015490"},{"PERIOD":"95.921","RCS_SIZE":"LARGE","SITE":"AFWTR","DECAY_DATE":null,"ARG_OF_PERICENTER":"79.0859","EPOCH":"2022-08-28T22:00:00.999936","CLASSIFICATION_TYPE":"U","OBJECT_NAME":"STARLINK-4305","LAUNCH_DATE":"2022-07-11","REF_FRAME":"TEME","REV_AT_EPOCH":"130","NORAD_CAT_ID":"53060","OBJECT_ID":"2022-077T","INCLINATION":"97.6570","MEAN_ELEMENT_THEORY":"SGP4","BSTAR":"0.00528780000000","RA_OF_ASC_NODE":"61.1647","EPHEMERIS_TYPE":"0","TIME_SYSTEM":"UTC","MEAN_MOTION":"15.01227753","FILE":"3550014","PERIAPSIS":"561.895","APOAPSIS":"564.327","TLE_LINE1":"1 53060U 22077T   22240.91667824  .00068464  00000-0  52878-2 0  9995","CENTER_NAME":"EARTH","MEAN_ANOMALY":"27.4314","GP_ID":"211214902","ECCENTRICITY":"0.00017520","MEAN_MOTION_DOT":"0.00068464","SEMIMAJOR_AXIS":"6941.246","MEAN_MOTION_DDOT":"0.0000000000000","COUNTRY_CODE":"US","OBJECT_TYPE":"PAYLOAD","TLE_LINE2":"2 53060  97.6570  61.1647 0001752  79.0859  27.4314 15.01227753  1306","ELEMENT_SET_NO":"999"},{"CENTER_NAME":"EARTH","TLE_LINE1":"1 53061U 22077U   22240.91667824  .00069906  00000-0  53980-2 0  9993","APOAPSIS":"564.127","MEAN_ANOMALY":"59.0429","MEAN_MOTION":"15.01227779","TIME_SYSTEM":"UTC","EPHEMERIS_TYPE":"0","RA_OF_ASC_NODE":"61.1653","MEAN_ELEMENT_THEORY":"SGP4","BSTAR":"0.00539800000000","FILE":"3550014","PERIAPSIS":"562.095","TLE_LINE2":"2 53061  97.6569  61.1653 0001464  87.3061  59.0429 15.01227779  1305","OBJECT_TYPE":"PAYLOAD","COUNTRY_CODE":"US","MEAN_MOTION_DDOT":"0.0000000000000","ELEMENT_SET_NO":"999","GP_ID":"211215194","SEMIMAJOR_AXIS":"6941.246","MEAN_MOTION_DOT":"0.00069906","ECCENTRICITY":"0.00014640","OBJECT_NAME":"STARLINK-4308","CLASSIFICATION_TYPE":"U","SITE":"AFWTR","RCS_SIZE":"LARGE","PERIOD":"95.921","EPOCH":"2022-08-28T22:00:00.999936","ARG_OF_PERICENTER":"87.3061","DECAY_DATE":null,"NORAD_CAT_ID":"53061","REV_AT_EPOCH":"130","INCLINATION":"97.6569","OBJECT_ID":"2022-077U","LAUNCH_DATE":"2022-07-11","REF_FRAME":"TEME"},{"MEAN_ANOMALY":"48.8191","APOAPSIS":"564.489","TLE_LINE1":"1 53062U 22077V   22240.91667824  .00390643  00000-0  28859-1 0  9995","CENTER_NAME":"EARTH","PERIAPSIS":"562.290","FILE":"3550014","MEAN_ELEMENT_THEORY":"SGP4","BSTAR":"0.02885900000000","RA_OF_ASC_NODE":"61.1679","TIME_SYSTEM":"UTC","EPHEMERIS_TYPE":"0","MEAN_MOTION":"15.01137502","ELEMENT_SET_NO":"999","MEAN_MOTION_DDOT":"0.0000000000000","COUNTRY_CODE":"US","OBJECT_TYPE":"PAYLOAD","TLE_LINE2":"2 53062  97.6564  61.1679 0001584  77.5365  48.8191 15.01137502  1306","ECCENTRICITY":"0.00015840","MEAN_MOTION_DOT":"0.00390643","SEMIMAJOR_AXIS":"6941.524","GP_ID":"211215048","CLASSIFICATION_TYPE":"U","OBJECT_NAME":"STARLINK-4311","DECAY_DATE":null,"ARG_OF_PERICENTER":"77.5365","EPOCH":"2022-08-28T22:00:00.999936","PERIOD":"95.927","RCS_SIZE":"LARGE","SITE":"AFWTR","OBJECT_ID":"2022-077V","INCLINATION":"97.6564","REV_AT_EPOCH":"130","NORAD_CAT_ID":"53062","REF_FRAME":"TEME","LAUNCH_DATE":"2022-07-11"},{"CLASSIFICATION_TYPE":"U","OBJECT_NAME":"STARLINK-4307","PERIOD":"95.374","RCS_SIZE":"LARGE","SITE":"AFWTR","DECAY_DATE":null,"ARG_OF_PERICENTER":"67.4692","EPOCH":"2022-08-28T22:00:00.999936","REV_AT_EPOCH":"130","NORAD_CAT_ID":"53063","OBJECT_ID":"2022-077W","INCLINATION":"97.6554","LAUNCH_DATE":"2022-07-11","REF_FRAME":"TEME","APOAPSIS":"538.001","TLE_LINE1":"1 53063U 22077W   22240.91667824 -.00990365  00000-0 -66619-1 0  9991","CENTER_NAME":"EARTH","MEAN_ANOMALY":"249.4109","MEAN_ELEMENT_THEORY":"SGP4","BSTAR":"-0.06661900000000","RA_OF_ASC_NODE":"61.3276","TIME_SYSTEM":"UTC","EPHEMERIS_TYPE":"0","MEAN_MOTION":"15.09841252","PERIAPSIS":"535.372","FILE":"3550014","MEAN_MOTION_DDOT":"0.0000000000000","COUNTRY_CODE":"US","OBJECT_TYPE":"PAYLOAD","TLE_LINE2":"2 53063  97.6554  61.3276 0001901  67.4692 249.4109 15.09841252  1305","ELEMENT_SET_NO":"999","GP_ID":"211215917","ECCENTRICITY":"0.00019010","MEAN_MOTION_DOT":"-0.00990365","SEMIMAJOR_AXIS":"6914.822"},{"ELEMENT_SET_NO":"999","OBJECT_TYPE":"PAYLOAD","COUNTRY_CODE":"US","MEAN_MOTION_DDOT":"0.0000000000000","TLE_LINE2":"2 53064  97.6573  61.1663 0001780  74.6938  61.7378 15.01262327  1308","ECCENTRICITY":"0.00017800","SEMIMAJOR_AXIS":"6941.140","MEAN_MOTION_DOT":"0.00023733","GP_ID":"211215321","MEAN_ANOMALY":"61.7378","TLE_LINE1":"1 53064U 22077X   22240.91667824  .00023733  00000-0  18460-2 0  9998","APOAPSIS":"564.240","CENTER_NAME":"EARTH","FILE":"3550014","PERIAPSIS":"561.769","RA_OF_ASC_NODE":"61.1663","MEAN_ELEMENT_THEORY":"SGP4","BSTAR":"0.00184600000000","MEAN_MOTION":"15.01262327","EPHEMERIS_TYPE":"0","TIME_SYSTEM":"UTC","OBJECT_ID":"2022-077X","INCLINATION":"97.6573","NORAD_CAT_ID":"53064","REV_AT_EPOCH":"130","REF_FRAME":"TEME","LAUNCH_DATE":"2022-07-11","CLASSIFICATION_TYPE":"U","OBJECT_NAME":"STARLINK-4313","DECAY_DATE":null,"EPOCH":"2022-08-28T22:00:00.999936","ARG_OF_PERICENTER":"74.6938","RCS_SIZE":"LARGE","PERIOD":"95.919","SITE":"AFWTR"},{"PERIOD":"95.922","RCS_SIZE":"LARGE","SITE":"AFWTR","DECAY_DATE":null,"ARG_OF_PERICENTER":"87.1785","EPOCH":"2022-08-28T22:00:00.999936","CLASSIFICATION_TYPE":"U","OBJECT_NAME":"STARLINK-4312","LAUNCH_DATE":"2022-07-11","REF_FRAME":"TEME","REV_AT_EPOCH":"130","NORAD_CAT_ID":"53065","OBJECT_ID":"2022-077Y","INCLINATION":"97.6564","BSTAR":"0.00534030000000","MEAN_ELEMENT_THEORY":"SGP4","RA_OF_ASC_NODE":"61.1645","EPHEMERIS_TYPE":"0","TIME_SYSTEM":"UTC","MEAN_MOTION":"15.01224430","FILE":"3550014","PERIAPSIS":"561.955","TLE_LINE1":"1 53065U 22077Y   22240.91667824  .00069145  00000-0  53403-2 0  9992","APOAPSIS":"564.288","CENTER_NAME":"EARTH","MEAN_ANOMALY":"79.3504","GP_ID":"211215611","ECCENTRICITY":"0.00016800","MEAN_MOTION_DOT":"0.00069145","SEMIMAJOR_AXIS":"6941.256","MEAN_MOTION_DDOT":"0.0000000000000","COUNTRY_CODE":"US","OBJECT_TYPE":"PAYLOAD","TLE_LINE2":"2 53065  97.6564  61.1645 0001680  87.1785  79.3504 15.01224430  1306","ELEMENT_SET_NO":"999"},{"REF_FRAME":"TEME","LAUNCH_DATE":"2022-07-11","INCLINATION":"97.6569","OBJECT_ID":"2022-077Z","NORAD_CAT_ID":"53066","REV_AT_EPOCH":"130","EPOCH":"2022-08-28T22:00:00.999936","ARG_OF_PERICENTER":"102.1260","DECAY_DATE":null,"SITE":"AFWTR","RCS_SIZE":"LARGE","PERIOD":"95.922","OBJECT_NAME":"STARLINK-4309","CLASSIFICATION_TYPE":"U","SEMIMAJOR_AXIS":"6941.255","MEAN_MOTION_DOT":"0.00069621","ECCENTRICITY":"0.00018160","GP_ID":"211215466","ELEMENT_SET_NO":"999","TLE_LINE2":"2 53066  97.6569  61.1648 0001816 102.1260  54.3901 15.01224894  1300","COUNTRY_CODE":"US","OBJECT_TYPE":"PAYLOAD","MEAN_MOTION_DDOT":"0.0000000000000","PERIAPSIS":"561.860","FILE":"3550014","MEAN_MOTION":"15.01224894","EPHEMERIS_TYPE":"0","TIME_SYSTEM":"UTC","RA_OF_ASC_NODE":"61.1648","BSTAR":"0.00537660000000","MEAN_ELEMENT_THEORY":"SGP4","MEAN_ANOMALY":"54.3901","CENTER_NAME":"EARTH","TLE_LINE1":"1 53066U 22077Z   22240.91667824  .00069621  00000-0  53766-2 0  9994","APOAPSIS":"564.381"},{"PERIAPSIS":"561.650","FILE":"3550014","RA_OF_ASC_NODE":"61.1717","BSTAR":"0.00033937000000","MEAN_ELEMENT_THEORY":"SGP4","MEAN_MOTION":"15.01257467","TIME_SYSTEM":"UTC","EPHEMERIS_TYPE":"0","MEAN_ANOMALY":"123.0314","TLE_LINE1":"1 53067U 22077AA  22240.91667824  .00004302  00000-0  33937-3 0  9999","APOAPSIS":"564.389","CENTER_NAME":"EARTH","ECCENTRICITY":"0.00019730","SEMIMAJOR_AXIS":"6941.155","MEAN_MOTION_DOT":"0.00004302","GP_ID":"211215754","ELEMENT_SET_NO":"999","OBJECT_TYPE":"PAYLOAD","COUNTRY_CODE":"US","MEAN_MOTION_DDOT":"0.0000000000000","TLE_LINE2":"2 53067  97.6554  61.1717 0001973  63.4564 123.0314 15.01257467  1306","DECAY_DATE":null,"EPOCH":"2022-08-28T22:00:00.999936","ARG_OF_PERICENTER":"63.4564","RCS_SIZE":"LARGE","PERIOD":"95.920","SITE":"AFWTR","CLASSIFICATION_TYPE":"U","OBJECT_NAME":"STARLINK-4306","REF_FRAME":"TEME","LAUNCH_DATE":"2022-07-11","OBJECT_ID":"2022-077AA","INCLINATION":"97.6554","NORAD_CAT_ID":"53067","REV_AT_EPOCH":"130"}];
